OBJECTID,Visual Check,X,Y,FID_,OBJECTID_1,FACILITY,MAPLABEL,CITY,COUNTY,FAACODE,FAANUM,AGL_FT,AGL_M,PMTLAT,PMTLONG,LATDMS,LONGDMS,LATDMS_D,LONGDMS_D,LATDD,LONGDD,URL,FILE_NAME
1,1,-119.6672222,36.32333333,0,1,Adventist Medical Center Hanford HP,Adventist MC Hanford,Hanford,Kings,15CN,01641.14*H,44,13.41100025,36-19-24.000N,119-40-02.000W,36 19 24.000N,119 40 02.000W,36.32333333,-119.6672222,36.32,-120,http://www.dot.ca.gov/hq/planning/aeronaut/helipads/dataplates/pdfs/Adventist_Medical_Center_Hanford_HP.pdf,Adventist_Medical_Center_Hanford_HP.pdf
2,1,-118.1599722,34.68776389,1,2,Antelope Valley Hospital Medical Center HP,Antelope Valley,Lancaster,Los Angeles, , ,0,0,34-41-17.000N,118-09-31.000W,34 41 15.950N,118 09 35.900W,34.68776389,-118.1599722,34.69,-118,http://www.dot.ca.gov/hq/planning/aeronaut/helipads/dataplates/pdfs/Antelope_Valley_Hospital_Medical_Center_HP.pdf,Antelope_Valley_Hospital_Medical_Center_HP.pdf
3,1,-117.349375,34.07481944,2,3,Arrowhead Regional Medical Center HP 1,Arrowhead Regional 1,Colton,San Bernardino,4CL9,01428.*H,0,0,34-04-31.000N,117-20-57.000W,34 04 29.350N,117 20 57.750W,34.07481944,-117.349375,34.07,-117,http://www.dot.ca.gov/hq/planning/aeronaut/helipads/dataplates/pdfs/Arrowhead_Regional_Medical_Center_H1_and_H2_HP.pdf,Arrowhead_Regional_Medical_Center_H1_and_H2_HP.pdf
4,1,-117.3493194,34.07543056,3,4,Arrowhead Regional Medical Center HP 2,Arrowhead Regional 2,Colton,San Bernardino,4CL9,01428.*H,0,0,34-04-33.000N,117-20-57.000W,34 04 31.550N,117 20 57.550W,34.07543056,-117.3493194,34.08,-117,http://www.dot.ca.gov/hq/planning/aeronaut/helipads/dataplates/pdfs/Arrowhead_Regional_Medical_Center_H1_and_H2_HP.pdf,Arrowhead_Regional_Medical_Center_H1_and_H2_HP.pdf
5,1,-119.0063194,35.39127778,4,5,Bakersfield Memorial Hospital HP,Bakersfield Memorial,Bakersfield,Kern,CL60,01289.42*H,32,9.75399971,35-23-28.000N,119-00-19.000W,35 23 28.600N,119 00 22.750W,35.39127778,-119.0063194,35.39,-119,http://www.dot.ca.gov/hq/planning/aeronaut/helipads/dataplates/pdfs/Bakersfield_Memorial_Hospital_HP.pdf,Bakersfield_Memorial_Hospital_HP.pdf
6,1,-120.62875,40.43745833,5,6,Banner Lassen Medical Center HP,Banner Lassen MC,Susanville,Lassen,99CN,02332.01*H,0,0,40-26-16.000N,120-37-40.000W,40 26 14.850N,120 37 43.500W,40.43745833,-120.62875,40.44,-121,http://www.dot.ca.gov/hq/planning/aeronaut/helipads/dataplates/pdfs/Banner_Lassen_Medical_Center_HP.pdf,Banner_Lassen_Medical_Center_HP.pdf
7,1,-117.0182639,34.89405556,6,7,Barstow Community Hospital HP,Barstow Community,Barstow,San Bernardino,CL17,01299.84*H,0,0,34-53-33.000N,117-01-03.000W,34 53 38.600N,117 01 05.750W,34.89405556,-117.0182639,34.89,-117,http://www.dot.ca.gov/hq/planning/aeronaut/helipads/dataplates/pdfs/Barstow_Community_Hospital_HP.pdf,Barstow_Community_Hospital_HP.pdf
8,1,-119.9968889,38.91127778,7,8,Barton Memorial Hospital HP,Barton Memorial,South Lake Tahoe,El Dorado,CA43,02303.17*H,18,5.63899994,38-54-40.000N,119-59-48.000W,38 54 40.600N,119 59 48.800W,38.91127778,-119.9968889,38.91,-120,http://www.dot.ca.gov/hq/planning/aeronaut/helipads/dataplates/pdfs/Barton_Memorial_Hospital_HP.pdf,Barton_Memorial_Hospital_HP.pdf
9,1,-119.8016111,36.88326389,8,9,Valley Childrens' Hospital HP 1,Valley Childrens' Hospital 1,Madera,Madera,9CL6,01853.12*H,0,0,36-52-53.000N,119-48-06.000W,36 52 59.750N,119 48 05.800W,36.88326389,-119.8016111,36.88,-120,http://dot.ca.gov/hq/planning/aeronaut/helipads/dataplates/pdfs/Valley_Childrens_Hospital_HP.pdf,Valley_Childrens_Hospital_HP.pdf
10,1,-119.8000972,36.88256944,9,10,Valley Children's Hospital HP 2,Valley Childrens' Hospital 2,Madera,Madera,9CL6,01853.12*H,0,0,36-52-53.000N,119-48-06.000W,36 52 57.250N,119 48 00.350W,36.88256944,-119.8000972,36.88,-120,http://www.dot.ca.gov/hq/planning/aeronaut/helipads/dataplates/pdfs/Valley_Childrens_Hospital_HP.pdf,Valley_Childrens_Hospital_HP.pdf
11,1,-119.8000139,36.88147222,10,11,Valley Childrens' Hospital HP 3,Valley Childrens' Hospital 3,Madera,Madera,9CL6,01853.12*H,0,0,36-52-53.000N,119-48-06.000W,36 52 53.300N,119 48 00.050W,36.88147222,-119.8000139,36.88,-120,http://www.dot.ca.gov/hq/planning/aeronaut/helipads/dataplates/pdfs/Valley_Childrens_Hospital_HP.pdf,Valley_Childrens_Hospital_HP.pdf
12,1,-122.2667778,37.83615278,11,12,Childrens Hospital Oakland,Childrens Oakland,Oakland,Alameda,7CL1,01971.07*H,36,10.97299957,37-50-10.000N,122-16-00.000W,37 50 10.150N,122 16 00.400W,37.83615278,-122.2667778,37.84,-122,http://www.dot.ca.gov/hq/planning/aeronaut/helipads/dataplates/pdfs/Childrens_Hospital_Oakland_HP.pdf,Childrens_Hospital_Oakland_HP.pdf
13,1,-118.2909722,34.09727778,12,13,Childrens Hospital of Los Angeles HP 1,Childrens Los Angeles 1,Los Angeles,Los Angeles,29CL,01817.43*H,109,33.22299957,34-05-51.000N,118-17-20.000W,34 05 50.200N,118 17 27.500W,34.09727778,-118.2909722,34.1,-118,http://www.dot.ca.gov/hq/planning/aeronaut/helipads/dataplates/pdfs/Childrens_Hospital_of_Los_Angeles_HP.pdf,Childrens_Hospital_of_Los_Angeles_HP.pdf
14,1,-118.2886667,34.09727778,13,14,Childrens Hospital of Los Angeles HP 2,Childrens Los Angeles 2,Los Angeles,Los Angeles,29CL,01817.43*H,138,42.06200027,34-05-51.000N,118-17-20.000W,34 05 50.200N,118 17 19.200W,34.09727778,-118.2886667,34.1,-118,http://www.dot.ca.gov/hq/planning/aeronaut/helipads/dataplates/pdfs/Childrens_Hospital_of_Los_Angeles_HP.pdf,Childrens_Hospital_of_Los_Angeles_HP.pdf
15,1,-117.8654028,33.78145833,14,15,Childrens Hospital of Orange County North Tower HP,Childrens Orange County,Orange,Orange,4CA5,01989.14*H,103,31.3939991,33-46-53.000N,117-51-54.000W,33 46 53.250N,117 51 55.450W,33.78145833,-117.8654028,33.78,-118,http://www.dot.ca.gov/hq/planning/aeronaut/helipads/dataplates/pdfs/Childrens_Hospital_of_Orange_County_HP.pdf,Childrens_Hospital_of_Orange_County_HP.pdf
16,1,-119.6590972,36.83861111,15,16,Clovis Community Hospital HP,Clovis Community,Clovis,Fresno, , ,0,0,36-50-19.000N,119-39-29.000W,36 50 19.000N,119 39 32.750W,36.83861111,-119.6590972,36.84,-120,http://www.dot.ca.gov/hq/planning/aeronaut/helipads/dataplates/pdfs/Clovis_Community_Hospital_HP.pdf,Clovis_Community_Hospital_HP.pdf
17,1,-119.2592083,34.27472222,16,17,Community Memorial Hospital HP,Community Memorial,Ventura,Ventura,CA72,02401.51*H,38,11.58199978,34-16-29.000N,119-15-25.000W,34 16 29.000N,119 15 33.150W,34.27472222,-119.2592083,34.27,-119,http://www.dot.ca.gov/hq/planning/aeronaut/helipads/dataplates/pdfs/Community_Memorial_Hospital_HP.pdf,Community_Memorial_Hospital_HP.pdf
18,1,-119.7852778,36.74411111,17,18,Community Regional Medical Center HP A,Community Regional  MC A,Fresno,Fresno,CN51,01590.13*H,115,35.05199814,36-44-39.000N,119-47-07.000W,36 44 38.800N,119 47 07.000W,36.74411111,-119.7852778,36.74,-120,http://www.dot.ca.gov/hq/planning/aeronaut/helipads/dataplates/pdfs/Community_Regional_Medical_Center_HP_A_and_B.pdf,Community_Regional_Medical_Center_HP_A_and_B.pdf
19,1,-119.7852778,36.74361111,18,19,Community Regional Medical Center HP B,Community Regional  MC B,Fresno,Fresno,CN51,01590.13*H,115,35.05199814,36-44-37.000N,119-47-07.000W,36 44 37.000N,119 47 07.000W,36.74361111,-119.7852778,36.74,-120,http://www.dot.ca.gov/hq/planning/aeronaut/helipads/dataplates/pdfs/Community_Regional_Medical_Center_HP_A_and_B.pdf,Community_Regional_Medical_Center_HP_A_and_B.pdf
20,1,-119.785,36.743,19,20,Community Regional Medical Center HP C,Community Regional  MC C,Fresno,Fresno,CN51,01590.13*H,120,36.57600021,36-44-35.000N,119-47-06.000W,36 44 34.800N,119 47 06.000W,36.743,-119.785,36.74,-120,http://www.dot.ca.gov/hq/planning/aeronaut/helipads/dataplates/pdfs/Community_Regional_Medical_Center_HP_C.pdf,Community_Regional_Medical_Center_HP_C.pdf
21,1,-120.9372222,40.14119444,20,21,Indian Valley Hospital HP,Indian Valley,Greenville,Plumas,30CA,01631.*H,0,0,40-08-28.000N,120-56-14.000W,40 08 28.300N,120 56 14.000W,40.14119444,-120.9372222,40.14,-121,http://www.dot.ca.gov/hq/planning/aeronaut/helipads/dataplates/pdfs/Indian_Valley_Hospital_HP.pdf,Indian_Valley_Hospital_HP.pdf
22,1,-117.2371944,33.59256944,21,22,Inland Valley Medical Center HP,Inland Valley MC,Wildomar,Riverside,2CL8,02449.*H,0,0,33-35-33.000N,117-14-11.000W,33 35 33.250N,117 14 13.900W,33.59256944,-117.2371944,33.59,-117,http://www.dot.ca.gov/hq/planning/aeronaut/helipads/dataplates/pdfs/Inland_Valley_Medical_Center_HP.pdf,Inland_Valley_Medical_Center_HP.pdf
23,1,-119.9778472,37.49976389,22,23,John C Fremont Healthcare District HP,John C Fremont Healthcare District,Mariposa,Mariposa, , ,0,0,37-30-00.000N,119-58-36.000W,37 29 59.150N,119 58 40.250W,37.49976389,-119.9778472,37.5,-120,http://www.dot.ca.gov/hq/planning/aeronaut/helipads/dataplates/pdfs/John_C_Fremont_Hospital_HP.pdf,John_C_Fremont_Hospital_HP.pdf
24,1,-116.2368056,33.70586111,23,24,John F Kennedy Memorial Hospital HP,John F Kennedy Memorial,Indio,Riverside,42CA,01688.2*H,0,0,33-42-21.000N,116-14-12.000W,33 42 21.100N,116 14 12.500W,33.70586111,-116.2368056,33.71,-116,http://www.dot.ca.gov/hq/planning/aeronaut/helipads/dataplates/pdfs/John_F_Kennedy_Memorial_Hospital_HP.pdf,John_F_Kennedy_Memorial_Hospital_HP.pdf
25,1,-122.0415972,37.91284722,24,25,John Muir Medical Center Walnut Creek HP,John Muir MC Walnut Creek,Walnut Creek,Contra Costa,CA63,02416.1*H,93,28.34600067,37-54-46.000N,122-02-30.000W,37 54 46.250N,122 02 29.750W,37.91284722,-122.0415972,37.91,-122,http://www.dot.ca.gov/hq/planning/aeronaut/helipads/dataplates/pdfs/John_Muir_Medical_Center_Walnut_Creek_HP.pdf,John_Muir_Medical_Center_Walnut_Creek_HP.pdf
26,1,-121.7336833,37.92409722,25,26,John Muir Mt Diablo Medical Center HP,John Muir Mt Diablo MC,Brentwood,Contra Costa, , ,8,2.43799996,37-55-28.000N,121-43-57.000W,37 55 26.750N,121 44 01.260W,37.92409722,-121.7336833,37.92,-122,http://www.dot.ca.gov/hq/planning/aeronaut/helipads/dataplates/pdfs/John_Muir_Mt_Diablo_Medical_Center_HP.pdf,John_Muir_Mt_Diablo_Medical_Center_HP.pdf
27,1,-117.4323611,34.0725,26,27,Kaiser Fontana HP,Kaiser Fontana,Fontana,San Bernardino,94CA,01576.1*H,77,23.46999931,34-04-22.000N,117-25-53.000W,34 04 21.000N,117 25 56.500W,34.0725,-117.4323611,34.07,-117,http://www.dot.ca.gov/hq/planning/aeronaut/helipads/dataplates/pdfs/Kaiser_Fontana_HP.pdf,Kaiser_Fontana_HP.pdf
28,1,-121.2470972,37.79793056,27,28,Kaiser Foundation Hospital Manteca HP,Kaiser Foundation Manteca,Manteca,San Joaquin, , ,0,0,37-47-54.000N,121-14-44.000W,37 47 52.550N,121 14 49.550W,37.79793056,-121.2470972,37.8,-121,http://www.dot.ca.gov/hq/planning/aeronaut/helipads/dataplates/pdfs/Kaiser_Foundation_Hospital_Manteca_HP.pdf,Kaiser_Foundation_Hospital_Manteca_HP.pdf
29,1,-121.9998194,37.335,28,30,Kaiser Permanente Medical Center Santa Clara HP,Kaiser Permanente MC Santa Clara,Santa Clara,Santa Clara, , ,17,5.18200016,37-20-06.000N,122-59-59.000W,37 20 06.000N,121 59 59.350W,37.335,-121.9998194,37.34,-122,http://www.dot.ca.gov/hq/planning/aeronaut/helipads/dataplates/pdfs/Kaiser_Permanente_Medical_Center_Santa_Clara_HP.pdf,Kaiser_Permanente_Medical_Center_Santa_Clara_HP.pdf
30,1,-121.0528194,37.70801389,29,31,Kaiser Permanente Modesto HP,Kaiser Permanente Modesto,Modesto,Stanislaus, , ,10,3.0480001,37-42-28.000N,121-03-14.000W,37 42 28.850N,121 03 10.150W,37.70801389,-121.0528194,37.71,-121,http://www.dot.ca.gov/hq/planning/aeronaut/helipads/dataplates/pdfs/Kaiser_Permanente_Modesto_HP.pdf,Kaiser_Permanente_Modesto_HP.pdf
31,1,-116.5438889,33.83847222,30,32,Desert Regional Medical Center HP,Desert Regional MC,Palm Springs,Riverside,7CA4,02017.15*H,45,13.7159996,33-50-20.000N,116-32-30.000W,33 50 18.500N,116 32 38.000W,33.83847222,-116.5438889,33.84,-117,http://www.dot.ca.gov/hq/planning/aeronaut/helipads/dataplates/pdfs/Desert_Regional_Medical_Center_HP.pdf,Desert_Regional_Medical_Center_HP.pdf
32,1,-120.9974306,37.66543056,31,33,Doctors Medical Center of Modesto HP,Doctors MC Modesto,Modesto,Stanislaus,None,None,52,15.85000038,37-39-53.000N,120-59-46.000W,37 39 55.550N,120 59 50.750W,37.66543056,-120.9974306,37.67,-121,http://www.dot.ca.gov/hq/planning/aeronaut/helipads/dataplates/pdfs/Doctors_Medical_Center_of_Modesto_HP.pdf,Doctors_Medical_Center_of_Modesto_HP.pdf
33,1,-121.9825,36.99065278,32,35,Dominican Hospital HP,Dominican,Santa Cruz,Santa Cruz,CA37,02241.12*H,0,0,36-59-27.000N,121-58-52.000W,36 59 26.350N,121 58 57W,36.99065278,-121.9825,36.99,-122,http://www.dot.ca.gov/hq/planning/aeronaut/helipads/dataplates/pdfs/Dominican_Hospital_HP.pdf,Dominican_Hospital_HP.pdf
34,1,-116.4048889,33.76402778,33,36,Eisenhower Medical Center HP,Eisenhower MC,Rancho Mirage,Riverside,7CA8,02078.72*H,0,0,33-45-57.000N,116-24-20.000W,33 45 50.500N,116 24 17.600W,33.76402778,-116.4048889,33.76,-116,http://www.dot.ca.gov/hq/planning/aeronaut/helipads/dataplates/pdfs/Eisenhower_Medical_Center_HP.pdf,Eisenhower_Medical_Center_HP.pdf
35,1,-115.5686111,32.77986111,34,37,El Centro Regional Medical Center HP,El Centro Regional MC,El Centro,Imperial,76CN,01531.*H,40,12.19200039,32-46-47.000N,115-34-07.000W,32 46 47.500N,115 34 07.000W,32.77986111,-115.5686111,32.78,-116,http://www.dot.ca.gov/hq/planning/aeronaut/helipads/dataplates/pdfs/El_Centro_Regional_Medical_Center_HP.pdf,El_Centro_Regional_Medical_Center_HP.pdf
36,1,-120.8391667,37.51258333,35,38,Emanuel Medical Center Roof Top HP,Emanuel MC Roof Top,Turlock,Stanislaus,CA58,02376.2*H,60,18.28800011,37-30-45.000N,120-50-21.000W,37 30 45.300N,120 50 21.000W,37.51258333,-120.8391667,37.51,-121,http://www.dot.ca.gov/hq/planning/aeronaut/helipads/dataplates/pdfs/Emanual_Medical_Center_Roof_Top_HP.pdf,Emanual_Medical_Center_Roof_Top_HP.pdf
37,1,-121.8502083,39.74190278,36,39,Enloe Medical Center HP,Enloe MC,Chico,Butte,CL37,01395.01*H,64,19.50699997,39-44-32.000N,121-50-57.000W,39 44 30.850N,121 51 00.750W,39.74190278,-121.8502083,39.74,-122,http://www.dot.ca.gov/hq/planning/aeronaut/helipads/dataplates/pdfs/Enloe_Medical_Center_HP.pdf,Enloe_Medical_Center_HP.pdf
38,1,-117.8706667,34.13344444,37,40,Foothill Presbyterian Hospital HP,Foothill Presbyterian,Glendora,Los Angeles,14CL,01612.5*H,0,0,34-08-00.000N,117-52-06.000W,34 08 00.400N,117 52 14.400W,34.13344444,-117.8706667,34.13,-118,http://www.dot.ca.gov/hq/planning/aeronaut/helipads/dataplates/pdfs/Foothill_Presbyterian_Hospital_HP.pdf,Foothill_Presbyterian_Hospital_HP.pdf
39,1,-121.1325,36.20552778,38,41,George L Mee Memorial Hospital HP,George L Mee Memorial,King City,Monterey,09CA,01713.01*H,0,0,36-12-20.000N,121-07-57.000W,36 12 19.900N,121 07 57.000W,36.20552778,-121.1325,36.21,-121,http://www.dot.ca.gov/hq/planning/aeronaut/helipads/dataplates/pdfs/George_L_Mee_Memorial_Hospital_HP.pdf,George_L_Mee_Memorial_Hospital_HP.pdf
40,1,-118.230625,34.15173611,39,42,Glendale Adventist Medical Center HP,Glendale Adventist MC,Glendale,Los Angeles,CL06,01611.14*H,62,18.89800072,34-09-06.000N,118-13-45.000W,34 09 06.250N,118 13 50.250W,34.15173611,-118.230625,34.15,-118,http://www.dot.ca.gov/hq/planning/aeronaut/helipads/dataplates/pdfs/Glendale_Adventist_Medical_Center_HP.pdf,Glendale_Adventist_Medical_Center_HP.pdf
41,1,-121.9474444,37.25322222,40,43,Good Samaritan Hospital HP,Good Samaritan,San Jose,Santa Clara, , ,13,3.96199989,37-15-12.000N,121-56-46.000W,37 15 11.600N,121 56 50.800W,37.25322222,-121.9474444,37.25,-122,http://www.dot.ca.gov/hq/planning/aeronaut/helipads/dataplates/pdfs/Good_Samaritan_Hospital_HP.pdf,Good_Samaritan_Hospital_HP.pdf
42,1,-118.2649028,34.05497222,41,44,Good Samaritan Hospital (LA) HP,Good Samaritan  LA,Los Angeles,Los Angeles,0CL7,01817.48*H,133,40.5379982,34-03-16.000N,118-15-51.000W,34 03 17.900N,118 15 53.650W,34.05497222,-118.2649028,34.05,-118,http://www.dot.ca.gov/hq/planning/aeronaut/helipads/dataplates/pdfs/Good_Samaritan_Hospital_LA_HP.pdf,Good_Samaritan_Hospital_LA_HP.pdf
43,1,-117.0069167,32.77944444,42,45,Grossmont Hospital HP,Grossmont,La Mesa,San Diego,03CA,01746.11*H,0,0,32-46-46.000N,117-00-22.000W,32 46 46.000N,117 00 24.900W,32.77944444,-117.0069167,32.78,-117,http://www.dot.ca.gov/hq/planning/aeronaut/helipads/dataplates/pdfs/Grossmont_District_Hospital_HP.pdf,Grossmont_District_Hospital_HP.pdf
44,1,-119.6595139,36.32976389,43,46,Hanford Community Medical Center HP,Hanford Community MC,Hanford,Kings,4CL8,01641.21*H,7,2.13400006,36-19-48.000N,119-39-31.000W,36 19 47.150N,119 39 34.250W,36.32976389,-119.6595139,36.33,-120,http://www.dot.ca.gov/hq/planning/aeronaut/helipads/dataplates/pdfs/Hanford_Community_Medical_Center_HP.pdf,Hanford_Community_Medical_Center_HP.pdf
45,1,-118.2925,33.82916667,44,47,Harbor/UCLA Medical Center HP,Harbor UCLA MC,Torrance,Los Angeles, , ,10,3.0480001,33-49-42.000N,118-17-52.000W,33 49 45.000N,118 17 33.000W,33.82916667,-118.2925,33.83,-118,http://www.dot.ca.gov/hq/planning/aeronaut/helipads/dataplates/pdfs/Harbor_UCLA_Medical_Center_HP.pdf, 
46,1,-121.3865,36.83469444,45,48,Hazel Hawkins Memorial Hospital HP,Hazel Hawkins Memorial,Hollister,San Benito,9CN1,01668.12*H,29,8.83899975,36-50-05.000N,121-23-11.000W,36 50 04.900N,121 23 11.400W,36.83469444,-121.3865,36.83,-121,http://www.dot.ca.gov/hq/planning/aeronaut/helipads/dataplates/pdfs/Hazel_Hawkins_Memorial_Hospital_HP.pdf,Hazel_Hawkins_Memorial_Hospital_HP.pdf
47,1,-118.5516667,34.39916667,46,49,Henry Mayo Newhall Memorial Rooftop & Parking Structure,Henry Mayo Newhall Memorial Rooftop & Parking Structure,Santa Clarita,Los Angeles, , ,109,33.22299957,34-23-57.000N,118-33-06.000W,34 23 57.000N,118 33 06.000W,34.39916667,-118.5516667,34.4,-119,http://www.dot.ca.gov/hq/planning/aeronaut/helipads/dataplates/pdfs/HenryMayoNewhallMemorialHospital_HP.pdf,HenryMayoNewhallMemorialHospital_HP.pdf
48,1,-116.2757778,34.13127778,47,50,Hi-Desert Medical Center HP,Hi-Desert MC,Joshua Tree,San Bernardino,9CA4,01705.81*H,0,0,34-07-54.000N,116-16-32.000W,34 07 52.600N,116 16 32.800W,34.13127778,-116.2757778,34.13,-116,http://www.dot.ca.gov/hq/planning/aeronaut/helipads/dataplates/pdfs/Hi-Desert_Medical_Center_HP.pdf,Hi-Desert_Medical_Center_HP.pdf
49,1,-117.9307639,33.62513889,48,51,Hoag Memorial Hospital HP,Hoag Memorial,Newport Beach,Orange,14CA,01947.01*H,16,4.87699986,33-37-27.000N,117-55-43.000W,33 37 30.500N,117 55 50.750W,33.62513889,-117.9307639,33.63,-118,http://www.dot.ca.gov/hq/planning/aeronaut/helipads/dataplates/pdfs/Hoag_Memorial_Hospital_HP.pdf,Hoag_Memorial_Hospital_HP.pdf
50,1,-118.1520833,34.13438889,49,53,Huntington Memorial Hospital HP 2,Huntington Memorial  2,Pasadena,Los Angeles,CL14,02029.42*H,111,33.83300018,34-08-02.000N,118-09-08.000W,34 08 03.800N,118 09 07.500W,34.13438889,-118.1520833,34.13,-118,http://www.dot.ca.gov/hq/planning/aeronaut/helipads/dataplates/pdfs/Huntington_Memorial_Hospital_HP_2.pdf,Huntington_Memorial_Hospital_HP_2.pdf
51,1,-118.26625,34.03506944,50,54,Maguire-California Hospital HP,Maguire-California,Los Angeles, ,CA23,02396.01*H,148,45.11000061,34-02-07.000N,118-15-58.000W,34 02 06.250N,118 15 58.500W,34.03506944,-118.26625,34.04,-118,http://www.dot.ca.gov/hq/planning/aeronaut/helipads/dataplates/pdfs/MaguireCaliforniaHospitalHP.pdf,MaguireCaliforniaHospitalHP.pdf
52,1,-120.4130278,34.95038889,51,55,Marian Medical Center HP,Marian MC,Santa Maria,Santa Barbara,1CL8,02246.2*H,10,3.0480001,34-57-02.000N,120-24-42.000W,34 57 01.400N,120 24 46.900W,34.95038889,-120.4130278,34.95,-120,http://www.dot.ca.gov/hq/planning/aeronaut/helipads/dataplates/pdfs/Marian_Medical_Center_HP.pdf,Marian_Medical_Center_HP.pdf
53,1,-120.6691667,38.19070833,52,56,Mark Twain St Joseph's Hospital HP,Mark Twain St Josephs,San Andreas,Calaveras,CA25,02141.12*H,0,0,38-11-34.000N,120-40-24.000W,38 11 26.550N,120 40 09.000W,38.19070833,-120.6691667,38.19,-121,http://www.dot.ca.gov/hq/planning/aeronaut/helipads/dataplates/pdfs/Mark_Twain_St_Josephs_Hospital_HP.pdf,Mark_Twain_St_Josephs_Hospital_HP.pdf
54,1,-120.8589583,37.06451389,53,57,Memorial Hospital of Los Banos HP,Memorial  Los Banos,Los Banos,Merced,CA80,01839.13*H,0,0,37-03-52.000N,120-51-33.000W,37 03 52.250N,120 51 32.250W,37.06451389,-120.8589583,37.06,-121,http://www.dot.ca.gov/hq/planning/aeronaut/helipads/dataplates/pdfs/Memorial_Hospital_of_Los_Banos_HP.pdf,Memorial_Hospital_of_Los_Banos_HP.pdf
55,1,-120.9720694,37.66913889,54,58,Memorial Medical Center HP - Modesto,Memorial MC Modesto,Modesto,Stanislaus, , ,0,0,37-40-10.000N,120-58-19.000W,37 40 08.900N,120 58 19.450W,37.66913889,-120.9720694,37.67,-121,http://www.dot.ca.gov/hq/planning/aeronaut/helipads/dataplates/pdfs/Memorial_Medical_Center_Modesto_HP.pdf,Memorial_Medical_Center_Modesto_HP.pdf
56,1,-123.7995972,39.431875,55,59,Mendocino Coast District Hospital HP,Mendocino Coast District,Fort Bragg,Mendocino,CN01,01581.15*H,0,0,39-25-55.000N,123-47-55.000W,39 25 54.750N,123 47 58.550W,39.431875,-123.7995972,39.43,-124,http://www.dot.ca.gov/hq/planning/aeronaut/helipads/dataplates/pdfs/Mendocino_Coast_District_Hospital_HP.pdf,Mendocino_Coast_District_Hospital_HP.pdf
57,1,-120.4666667,37.34083333,56,60,Mercy Medical Center Merced HP,Mercy MC Merced,Merced,Merced,86CN,01886.11*H,0,0,37-20-27.000N,120-28-00.000W,37 20 27.000N,120 28 00.000W,37.34083333,-120.4666667,37.34,-120,http://www.dot.ca.gov/hq/planning/aeronaut/helipads/dataplates/pdfs/Mercy_Medical_Center_Merced_HP.pdf,Mercy_Medical_Center_Merced_HP.pdf
58,1,-122.3200278,41.31861111,57,61,Mercy Medical Center of Mt Shasta HP,Mercy MC Mt Shasta,Redding,Shasta, , ,0,0,41-19-07.000N,122-19-08.000W,41 19 07.000N,122 19 12.100W,41.31861111,-122.3200278,41.32,-122,http://www.dot.ca.gov/hq/planning/aeronaut/helipads/dataplates/pdfs/Mercy_Medical_Center_of_Mt_Shasta_HP.pdf,Mercy_Medical_Center_of_Mt_Shasta_HP.pdf
59,1,-122.396625,40.57225,58,62,Mercy Medical Center Redding HP,Mercy MC Redding,Mt. Shasta,Siskiyou,7CA3,02088.11*H,0,0,40-34-20.000N,122-23-48.000W,40 34 20.100N,122 23 47.850W,40.57225,-122.396625,40.57,-122,http://www.dot.ca.gov/hq/planning/aeronaut/helipads/dataplates/pdfs/Mercy_Medical_Center_Redding_HP.pdf,Mercy_Medical_Center_Redding_HP.pdf
60,1,-117.6662083,33.56076389,59,64,Mission Hospital HP,Mission,Mission Viejo,Orange,CA55,01893.*H,90,27.43199921,33-33-38.000N,117-39-55.000W,33 33 38.750N,117 39 58.350W,33.56076389,-117.6662083,33.56,-118,http://www.dot.ca.gov/hq/planning/aeronaut/helipads/dataplates/pdfs/Mission_Hospital_HP.pdf,Mission_Hospital_HP.pdf
61,1,-117.17,33.61465278,60,65,Loma Linda University Medical Center - Murrieta HP,Loma Linda MC Murrieta,Murrieta,Riverside,40CN,01931.62*H,8,2.43799996,33-36-53.000N,117-10-11.000W,33 36 52.750N,117 10 12.000W,33.61465278,-117.17,33.61,-117,http://www.dot.ca.gov/hq/planning/aeronaut/helipads/dataplates/pdfs/Loma_Linda_University_Medical_Center_Murrieta_HP.pdf,Loma_Linda_University_Medical_Center_Murrieta_HP.pdf
62,1,-115.5530972,32.95845833,61,66,Pioneers Memorial Hospital HP,Pioneers Memorial,Brawley,Imperial,9CA2,01342.1*H,0,0,32-57-30.000N,115-33-11.300W,32 57 30.450N,115 33 11.150W,32.95845833,-115.5530972,32.96,-116,http://www.dot.ca.gov/hq/planning/aeronaut/helipads/dataplates/pdfs/Pioneers_Memorial_Hospital_HP.pdf,Pioneers_Memorial_Hospital_HP.pdf
63,1,-120.9619444,39.94019444,62,67,Plumas District Hospital HP,Plumas District,Quincy,Plumas,CL94,02074.02*H,0,0,39-56-24.900N,120-57-43.200W,39 56 24.700N,120 57 43.000W,39.94019444,-120.9619444,39.94,-121,http://www.dot.ca.gov/hq/planning/aeronaut/helipads/dataplates/pdfs/Plumas_District_Hospital_HP.pdf,Plumas_District_Hospital_HP.pdf
64,1,-117.0555556,32.99611111,63,68,Pomerado Hospital HP,Pomerado,Poway,San Diego,1CL5,02063.71*H,0,0,32-59-46.000N,117-03-21.000W,32 59 46.000N,117 03 20.000W,32.99611111,-117.0555556,33,-117,http://www.dot.ca.gov/hq/planning/aeronaut/helipads/dataplates/pdfs/Pomerado_Hospital_HP.pdf,Pomerado_Hospital_HP.pdf
65,1,-118.0496111,33.97152778,64,69,Presbyterian Intercommunity Hospital HP,Presbyterian Intercommunity,Whittier,Los Angeles,31CL,02444.*H,0,0,33-58-16.000N,118-02-57.000W,33 58 17.500N,118 02 58.600W,33.97152778,-118.0496111,33.97,-118,http://www.dot.ca.gov/hq/planning/aeronaut/helipads/dataplates/pdfs/Presbyterian_Intercommunity_Hospital_HP.pdf,Presbyterian_Intercommunity_Hospital_HP.pdf
66,1,-118.4611806,34.28013889,65,70,Providence Holy Cross Medical Center HP,Providence Holy Cross MC,Mission Hills,Los Angeles,3CA8,02184.01*H,0,0,34-16-47.000N,118-27-38.000W,34 16 48.500N,118 27 40.250W,34.28013889,-118.4611806,34.28,-118,http://www.dot.ca.gov/hq/planning/aeronaut/helipads/dataplates/pdfs/Providence_Holy_Cross_Medical_Center_HP.pdf,Providence_Holy_Cross_Medical_Center_HP.pdf
67,1,-118.3278472,34.15527778,66,71,Providence St Joseph Medical Center HP,Providence St Joseph MC,Burbank,Los Angeles,CA95,01353.01*H,45,13.7159996,34-09-20.000N,118-19-41.000W,34 09 19.000N,118 19 40.250W,34.15527778,-118.3278472,34.16,-118,http://www.dot.ca.gov/hq/planning/aeronaut/helipads/dataplates/pdfs/Providence_St_Joseph_Medical_Center_HP.pdf,Providence_St_Joseph_Medical_Center_HP.pdf
68,1,-122.2970694,38.32388889,67,72,Queen of the Valley Hospital HP,Queen of the Valley,Napa,Napa,CN14,01932.4*H,0,0,38-19-45.000N,122-17-35.000W,38 19 26.000N,122 17 49.450W,38.32388889,-122.2970694,38.32,-122,http://www.dot.ca.gov/hq/planning/aeronaut/helipads/dataplates/pdfs/Queen_of_the_Valley_Hospital_HP.pdf,Queen_of_the_Valley_Hospital_HP.pdf
69,1,-117.1518056,32.79868056,68,73,Rady Children's Hospital - San Diego HP,Rady Childrens - San Diego,San Diego,San Diego,CN17,02165.03*H,49,14.93500042,32-47-57.000N,117-09-06.000W,32 47 55.250N,117 09 06.500W,32.79868056,-117.1518056,32.8,-117,http://www.dot.ca.gov/hq/planning/aeronaut/helipads/dataplates/pdfs/Rady_Childrens_Hospital_-_San_Diego_HP.pdf,Rady_Childrens_Hospital_-_San_Diego_HP.pdf
70,1,-121.8485417,37.36145833,69,74,Regional Medical Center San Jose HP,Regional MC San Jose,San Jose,Santa Clara,88CA,02202.51*H,18,5.48600006,37-21-41.000N,121-50-55.000W,37 21 41.250N,121 50 54.750W,37.36145833,-121.8485417,37.36,-122,http://www.dot.ca.gov/hq/planning/aeronaut/helipads/dataplates/pdfs/Regional_Medical_Center_San_Jose_HP.pdf,Regional_Medical_Center_San_Jose_HP.pdf
71,1,-117.6720139,35.64034722,70,75,Ridgecrest Regional Hospital HP,Ridgecrest Regional,Ridgecrest,Kern,CA77,C2109.02*H,0,0,35-38-25.000N,117-40-16.000W,35 38 25.250N,117 40 19.250W,35.64034722,-117.6720139,35.64,-118,http://www.dot.ca.gov/hq/planning/aeronaut/helipads/dataplates/pdfs/Ridgecrest_Regional_Hospital_HP.pdf,Ridgecrest_Regional_Hospital_HP.pdf
72,1,-121.0475556,39.22748611,71,76,Sierra Nevada Memorial Hospital HP,Sierra Nevada Memorial,Grass Valley,Nevada,CA15,01625.11*H,44,13.41100025,39-13-39.000N,121-02-51.000W,39 13 38.950N,121 02 51.200W,39.22748611,-121.0475556,39.23,-121,http://www.dot.ca.gov/hq/planning/aeronaut/helipads/dataplates/pdfs/Sierra_Nevada_Memorial_Hospital_HP.pdf,Sierra_Nevada_Memorial_Hospital_HP.pdf
73,1,-118.7459722,34.28916667,72,77,Simi Valley Hospital HP,Simi Valley,Simi Valley,Ventura, , ,0,0,34-17-22.000N,118-44-38.000W,34 17 21.000N,118 44 45.500W,34.28916667,-118.7459722,34.29,-119,http://www.dot.ca.gov/hq/planning/aeronaut/helipads/dataplates/pdfs/Simi_Valley_Hospital_HP.pdf,Simi_Valley_Hospital_HP.pdf
74,1,-122.2205556,40.14861111,73,79,St Elizabeth Community Hospital HP,St Elizabeth Community,Red Bluff,Tehama, , ,0,0,40-08-57.000N,122-13-10.000W,40 08 55.000N,122 13 14.000W,40.14861111,-122.2205556,40.15,-122,http://www.dot.ca.gov/hq/planning/aeronaut/helipads/dataplates/pdfs/St_Elizabeth_Community_Hospital_HP.pdf,St_Elizabeth_Community_Hospital_HP.pdf
75,1,-118.2026389,33.92986111,74,80,St Francis Medical Center HP,St Francis MC,Lynwood,Los Angeles,4CA4,01850.*H,62,18.89800072,33-55-49.000N,118-12-06.000W,33 55 47.500N,118 12 09.500W,33.92986111,-118.2026389,33.93,-118,http://www.dot.ca.gov/hq/planning/aeronaut/helipads/dataplates/pdfs/St_Francis_Medical_Center_HP.pdf,St_Francis_Medical_Center_HP.pdf
76,1,-119.1573194,34.216625,75,81,St John's Regional Medical Center HP,St Johns Regional MC,Oxnard,Ventura,2CL6,02001.02*H,0,0,34-13-00.000N,119-09-25.000W,34 12 59.850N,119 09 26.350W,34.216625,-119.1573194,34.22,-119,http://www.dot.ca.gov/hq/planning/aeronaut/helipads/dataplates/pdfs/St_Johns_Regional_Medical_Center_HP.pdf,St_Johns_Regional_Medical_Center_HP.pdf
77,1,-121.2877778,37.97027778,76,82,St Josephs Medical Center HP,St Josephs MC,Stockton,San Joaquin,CN48,02315.19*H,25,7.61999989,37-58-16.000N,121-17-15.000W,37 58 13N,121 17 16W,37.97027778,-121.2877778,37.97,-121,http://www.dot.ca.gov/hq/planning/aeronaut/helipads/dataplates/pdfs/St_Josephs_Medical_Center_HP.pdf,St_Josephs_Medical_Center_HP.pdf
78,1,-118.186,33.78065278,77,83,St Mary Medical Center HP,St Mary MC,Long Beach,Los Angeles,50CA,01794.22*H,136,41.45299911,33-46-44.000N,118-11-06.000W,33 46 50.350N,118 11 09.600W,33.78065278,-118.186,33.78,-118,http://www.dot.ca.gov/hq/planning/aeronaut/helipads/dataplates/pdfs/St_Mary_Medical_Center_HP.pdf,St_Mary_Medical_Center_HP.pdf
79,1,-118.2725,34.06375,78,84,St Vincent Medical Center HP,St Vincent MC,Los Angeles,Los Angeles,CL12,01817.01*H,104,31.6989994,34-03-50.000N,118-16-21.000W,34 03 49.500N,118 16 21.000W,34.06375,-118.2725,34.06,-118,http://www.dot.ca.gov/hq/planning/aeronaut/helipads/dataplates/pdfs/St_Vincents_Medical_Center_HP.pdf,St_Vincents_Medical_Center_HP.pdf
80,1,-122.1745556,37.43516667,79,85,Stanford Hospital  - East HP,Stanford Health Care - East,Palo Alto,Santa Clara,15CA,02022.12*H,66,20.11700058,37-26-08.000N,122-10-26.000W,37 26 06.600N,122 10 28.400W,37.43516667,-122.1745556,37.44,-122,https://heliplates.dot.ca.gov/pdfs/Stanford_Hospital_HP.pdf,Stanford_Hospital_HP.pdf
81,1,-120.7639306,38.351,80,86,Sutter Amador Hospital HP,Sutter Amador,Jackson,Amador,CL21,01701.01*H,0,0,38-21-00.000N,120-45-51.000W,38 21 03.600N,120 45 50.150W,38.351,-120.7639306,38.35,-121,http://www.dot.ca.gov/hq/planning/aeronaut/helipads/dataplates/pdfs/Sutter_Amador_Hospital_HP.pdf,Sutter_Amador_Hospital_HP.pdf
82,1,-117.3816667,33.9775,81,87,Riverside Community Hospital HP,Riverside Community,Riverside,Riverside, , ,31,9.44900036,33-58-39.000N,117-22-54.000W,33 58 39.000N,117 22 54.000W,33.9775,-117.3816667,33.98,-117,http://www.dot.ca.gov/hq/planning/aeronaut/helipads/dataplates/pdfs/Riverside_Community_Hospital_HP.pdf,Riverside_Community_Hospital_HP.pdf
83,1,-117.1964583,33.91305556,82,88,Riverside County Regional Medical Center HP,Riverside County Regional MC,Moreno Valley,Riverside,CA28,01920.01*H,8,2.43799996,33-54-46.000N,117-11-47.000W,33 54 47.000N,117 11 47.250W,33.91305556,-117.1964583,33.91,-117,http://www.dot.ca.gov/hq/planning/aeronaut/helipads/dataplates/pdfs/Riverside_County_Regional_Medical_Center_HP.pdf,Riverside_County_Regional_Medical_Center_HP.pdf
84,1,-117.7092639,33.6085,83,89,Saddleback Memorial Medical Center HP,Saddleback Memorial MC,Laguna Hills,Orange,CA68,01735.01*H,46,14.02099991,33-36-30.000N,117-42-32.000W,33 36 30.600N,117 42 33.350W,33.6085,-117.7092639,33.61,-118,http://www.dot.ca.gov/hq/planning/aeronaut/helipads/dataplates/pdfs/Saddleback_Memorial_Medical_Center_HP.pdf,Saddleback_Memorial_Medical_Center_HP.pdf
85,1,-119.7649722,36.83579167,84,90,Saint Agnes Medical Center HP,Saint Agnes MC,Fresno,Fresno, , ,105,32.00400162,36-50-09.200N,119-45-53.700W,36 50 08.850N,119 45 53.900W,36.83579167,-119.7649722,36.84,-120,http://www.dot.ca.gov/hq/planning/aeronaut/helipads/dataplates/pdfs/Saint_Agnes_Medical_Center_HP.pdf,Saint_Agnes_Medical_Center_HP.pdf
86,1,-122.4749583,38.543375,85,91,St Helena Hospital HP,St Helena,St Helena,Napa, , ,0,0,38-32-34.000N,122-28-38.000W,38 32 36.150N,122 28 29.850W,38.543375,-122.4749583,38.54,-122,http://www.dot.ca.gov/hq/planning/aeronaut/helipads/dataplates/pdfs/St_Helena_Hospital_HP.pdf,St_Helena_Hospital_HP.pdf
87,1,-124.1432639,40.78480555,86,92,Saint Joseph Hospital HP,Saint Joseph,Eureka,Humboldt, , ,0,0,40-47-02.000N,124-08-48.000W,40 47 05.300N,124 08 35.750W,40.78480556,-124.1432639,40.78,-124,http://www.dot.ca.gov/hq/planning/aeronaut/helipads/dataplates/pdfs/Saint_Joseph_Hospital_HP.pdf,Saint_Joseph_Hospital_HP.pdf
88,1,-121.5711389,37.03559722,87,93,Saint Louise Regional Hospital HP,Saint Louise Regional,Gilroy,Santa Clara,5CL2,01609.5*H,0,0,37-02-09.000N,121-34-18.000W,37 02 08.150N,121 34 16.100W,37.03559722,-121.5711389,37.04,-122,http://www.dot.ca.gov/hq/planning/aeronaut/helipads/dataplates/pdfs/Saint_Louise_Regional_Hospital_Heliport.pdf,Saint_Louise_Regional_Hospital_Heliport.pdf
89,1,-117.6361806,34.10270833,88,94,San Antonio Community Hospital HP,San Antonio Community,Upland,San Bernardino,99CA,02385.02*H,6,1.829,34-06-09.000N,117-38-11.000W,34 06 09.750N,117 38 10.250W,34.10270833,-117.6361806,34.1,-118,http://www.dot.ca.gov/hq/planning/aeronaut/helipads/dataplates/pdfs/San_Antonio_Community_Hospital_HP.pdf,San_Antonio_Community_Hospital_HP.pdf
90,1,-116.9427778,33.93083333,89,95,San Gorgonio Memorial Hospital HP,San Gorgonio Memorial,Banning,Riverside,60CN,01297.1*H,10,3.0480001,33-55.85N,116-56.57W,33 55 51.000N,116 56 34.000W,33.93083333,-116.9427778,33.93,-117,http://www.dot.ca.gov/hq/planning/aeronaut/helipads/dataplates/pdfs/San_Gorgonio_Memorial_Hospital_HP.pdf,San_Gorgonio_Memorial_Hospital_HP.pdf
91,1,-119.0207917,35.38323611,90,96,Adventist Health Bakersfield,Adventist Health Bakersfield,Bakersfield,Kern,28CN,01289.4*H,65,19.81200027,35-23-01.000N,119-01-08.000W,35 22 59.650N,119 01 14.850W,35.38323611,-119.0207917,35.38,-119,http://www.dot.ca.gov/hq/planning/aeronaut/helipads/dataplates/pdfs/San_Joaquin_Community_Hospital_HP.pdf,San_Joaquin_Community_Hospital_HP.pdf
92,1,-121.2826944,37.88784722,91,97,San Joaquin General Hospital HP,San Joaquin General,French Camp,San Joaquin,CL52,02315.11*H,0,0,37-53-19.000N,121-17-02.000W,37 53 16.250N,121 16 57.700W,37.88784722,-121.2826944,37.89,-121,http://www.dot.ca.gov/hq/planning/aeronaut/helipads/dataplates/pdfs/San_Joaquin_General_Hospital_HP.pdf,San_Joaquin_General_Hospital_HP.pdf
93,1,-122.9056389,39.10534722,92,98,Sutter Lakeside Hospital HP,Sutter Lakeside,Lakeport,Lake,CL69,01743.01*H,0,0,39-06-21.000N,122-54-20.000W,39 06 19.250N,122 54 20.300W,39.10534722,-122.9056389,39.11,-123,http://www.dot.ca.gov/hq/planning/aeronaut/helipads/dataplates/pdfs/Sutter_Lakeside_Hospital_HP.pdf,Sutter_Lakeside_Hospital_HP.pdf
94,1,-122.0892361,37.69897222,93,99,Sutter Medical Center Castro Valley HP,Sutter MC Castro Valley,Castro Valley,Alameda,OCA1,01379.99*H,0,0,37-41-56.000N,122-05-21.000W,37 41 56.300N,122 05 21.250W,37.69897222,-122.0892361,37.7,-122,http://www.dot.ca.gov/hq/planning/aeronaut/helipads/dataplates/pdfs/Sutter_Medical_Center_Castro_Valley_HP.pdf,Sutter_Medical_Center_Castro_Valley_HP.pdf
95,1,-122.7074583,38.470625,94,100,Sutter Medical Center of Santa Rosa HP,Sutter MC Santa Rosa,Santa Rosa,Sonoma, , ,0,0,38-28-15.000N,122-42-21.000W,38 28 14.250N,122 42 26.850W,38.470625,-122.7074583,38.47,-123,http://www.dot.ca.gov/hq/planning/aeronaut/helipads/dataplates/pdfs/Sutter_Medical_Center_of_Santa_Rosa_HP.pdf,Sutter_Medical_Center_of_Santa_Rosa_HP.pdf
96,1,-121.2480833,38.766625,95,101,Sutter Roseville Medical Center HP,Sutter Roseville MC,Roseville,Placer, , ,33,10.05799961,38-45-58.000N,121-14-52.000W,38 45 59.850N,121 14 53.100W,38.766625,-121.2480833,38.77,-121,http://www.dot.ca.gov/hq/planning/aeronaut/helipads/dataplates/pdfs/Sutter_Roseville_Medical_Center_HP.pdf,Sutter_Roseville_Medical_Center_HP.pdf
97,1,-122.2375,38.13194444,96,102,Sutter Solano Medical Center HP,Sutter Solano MC,Vallejo,Solano, , ,0,0,38-07-55.000N,122-14-09.000W,38 07 55.000N,122 14 15.000W,38.13194444,-122.2375,38.13,-122,http://www.dot.ca.gov/hq/planning/aeronaut/helipads/dataplates/pdfs/Sutter_Solano_Medical_Center_HP.pdf,Sutter_Solano_Medical_Center_HP.pdf
98,1,-120.2002639,39.324125,97,103,Tahoe Forest Hospital HP,Tahoe Forest,Truckee,Nevada,64CA,02366.01*H,0,0,39-19-27.000N,120-11-57.000W,39 19 26.850N,120 12 00.950W,39.324125,-120.2002639,39.32,-120,http://www.dot.ca.gov/hq/planning/aeronaut/helipads/dataplates/pdfs/Tahoe_Forest_Hospital_HP.pdf,Tahoe_Forest_Hospital_HP.pdf
99,1,-117.2911111,33.18527778,98,104,Tri City Medical Center HP,Tri City MC,Oceanside,San Diego,36CL,01975.12*H,22,6.70599985,33-11-07.000N,117-17-25.000W,33 11 07.000N,117 17 28.000W,33.18527778,-117.2911111,33.19,-117,http://www.dot.ca.gov/hq/planning/aeronaut/helipads/dataplates/pdfs/Tri_City_Medical_Center_HP.pdf,Tri_City_Medical_Center_HP.pdf
100,1,-120.7189861,35.55602778,99,105,Twin Cities Community Hospital HP,Twin Cities Community,Templeton,San Luis Obispo,18CA,02347.*H,0,0,35-33-22.000N,120-43-09.000W,35 33 21.700N,120 43 08.350W,35.55602778,-120.7189861,35.56,-121,http://www.dot.ca.gov/hq/planning/aeronaut/helipads/dataplates/pdfs/Twin_Cities_Community_Hospital_HP.pdf,Twin_Cities_Community_Hospital_HP.pdf
101,1,-121.4554583,38.55483333,100,106,UC Davis Medical Center Tower ll HP,UC Davis MC Tower ll,Sacramento,Sacramento,3CL0,02124.03*H,205,62.48400116,38-33-17.260N,121-27-21.000W,38 33 17.400N,121 27 19.650W,38.55483333,-121.4554583,38.55,-121,http://www.dot.ca.gov/hq/planning/aeronaut/helipads/dataplates/pdfs/UC_Davis_Medical_Center_Tower_II_HP.pdf,UC_Davis_Medical_Center_Tower_II_HP.pdf
102,1,-117.1655278,32.75416667,101,107,UC San Diego Medical Center HP,UC San Diego MC,San Diego,San Diego,20CN,02177.01*H,55,16.76399994,32-45-14.000N,117-09-53.000W,32 45 15.000N,117 09 55.900W,32.75416667,-117.1655278,32.75,-117,http://www.dot.ca.gov/hq/planning/aeronaut/helipads/dataplates/pdfs/UC_San_Diego_Medical_Center_HP.pdf,UC_San_Diego_Medical_Center_HP.pdf
103,1,-117.8904167,33.78858333,102,108,UCI Medical Center HP,UCI MC,Orange,Orange,1CL4,01989.11*H,6,1.829,33-47-20.000N,117-53-23.000W,33 47 18.900N,117 53 25.500W,33.78858333,-117.8904167,33.79,-118,http://www.dot.ca.gov/hq/planning/aeronaut/helipads/dataplates/pdfs/UCI_Medical_Center_HP.pdf,UCI_Medical_Center_HP.pdf
104,1,-121.4207222,38.46981944,103,109,Kaiser South Sacramento Hospital HP,Kaiser South Sacramento,Sacramento,Sacramento,6CN6,02124.07*H,10,3.0480001,38-28-11.000N,121-25-14.000W,38 28 11.350N,121 25 14.600W,38.46981944,-121.4207222,38.47,-121,http://www.dot.ca.gov/hq/planning/aeronaut/helipads/dataplates/pdfs/Kaiser_South_Sacramento_Hospital_HP.pdf,Kaiser_South_Sacramento_Hospital_HP.pdf
105,1,-118.9696528,35.38243056,104,110,Kern Medical Center Rooftop HP,Kern MC Rooftop,Bakersfield,Kern,CL61,01291.41*H,34,10.36299992,35-23-03.000N,118-58-09.000W,35 22 56.750N,118 58 10.750W,35.38243056,-118.9696528,35.38,-119,http://www.dot.ca.gov/hq/planning/aeronaut/helipads/dataplates/pdfs/Kern_Medical_Center_Rooftop_HP.pdf,Kern_Medical_Center_Rooftop_HP.pdf
106,1,-118.4068056,35.63451389,105,111,Kern Valley Hospital HP,Kern Valley,Lake Isabella,Kern, , ,2,0.61000001,35-38-04.000N,118-24-21.000W,35 38 04.250N,118 24 24.500W,35.63451389,-118.4068056,35.63,-118,http://www.dot.ca.gov/hq/planning/aeronaut/helipads/dataplates/pdfs/Kern_Valley_Hospital_HP.pdf,Kern_Valley_Hospital_HP.pdf
107,1,-118.2117778,34.05972222,106,112,LAC USC Medical Center Ground HP,LAC USC MC Ground,Los Angeles,Los Angeles,35CA,1817.63*H,0,0,34-03-35.000N,118-12-39.000W,34 03 35.000N,118 12 42.400W,34.05972222,-118.2117778,34.06,-118,http://www.dot.ca.gov/hq/planning/aeronaut/helipads/dataplates/pdfs/LAC_USC_Medical_Center_Ground_HP.pdf,LAC_USC_Medical_Center_Ground_HP.pdf
108,1,-118.208125,34.05777778,107,113,LAC USC Medical Center Rooftop HP,LAC USC MC Rooftop,Los Angeles,Los Angeles,35CA,1817.63*H,114,34.74700165,34-03-27.000N,118-12-29.000W,34 03 28.000N,118 12 29.250W,34.05777778,-118.208125,34.06,-118,http://www.dot.ca.gov/hq/planning/aeronaut/helipads/dataplates/pdfs/LAC_USC_Medical_Center_Rooftop_HP.pdf,LAC_USC_Medical_Center_Rooftop_HP.pdf
109,1,-121.2867083,38.12243056,108,114,Lodi Memorial Hospital HP,Lodi Memorial,Lodi,San Joaquin,8CL7,01782.02*H,0,0,38-07-21.000N,121-17-09.000W,38 07 20.750N,121 17 12.150W,38.12243056,-121.2867083,38.12,-121,http://www.dot.ca.gov/hq/planning/aeronaut/helipads/dataplates/pdfs/Lodi_Memorial_Hospital_HP.pdf,Lodi_Memorial_Hospital_HP.pdf
110,1,-117.2641944,34.05013889,109,115,Loma Linda University Medical Center N HP,Loma Linda University MC N,Loma Linda,San Bernardino,94CL,01785.1*H,99,30.17499924,34-03-00.000N,117-15-50.000W,34 03 00.500N,117 15 51.100W,34.05013889,-117.2641944,34.05,-117,http://www.dot.ca.gov/hq/planning/aeronaut/helipads/dataplates/pdfs/Loma_Linda_University_Medical_Center_N_and_S_HP.pdf,Loma_Linda_University_Medical_Center_N_and_S_HP.pdf
111,1,-117.2638889,34.04888889,110,116,Loma Linda University Medical Center S HP,Loma Linda University MC S,Loma Linda,San Bernardino,94CL,01785.1*H,84,25.60300064,34-02-56.000N,117-15-50.000W,34 02 56.000N,117 15 50.000W,34.04888889,-117.2638889,34.05,-117,http://www.dot.ca.gov/hq/planning/aeronaut/helipads/dataplates/pdfs/Loma_Linda_University_Medical_Center_N_and_S_HP.pdf,Loma_Linda_University_Medical_Center_N_and_S_HP.pdf
112,1,-118.186625,33.80870833,111,117,Long Beach Memorial Medical Center HP,Long Beach Memorial MC,Long Beach,Los Angeles,30CL,01794.21*H,34,10.36299992,33-48-30.000N,118-11-11.000W,33 48 31.350N,118 11 11.850W,33.80870833,-118.186625,33.81,-118,http://www.dot.ca.gov/hq/planning/aeronaut/helipads/dataplates/pdfs/Long_Beach_Memorial_Medical_Center_HP.pdf,Long_Beach_Memorial_Medical_Center_HP.pdf
113,1,-118.8830278,34.20683333,112,118,Los Robles Medical Center 2 HP,Los Robles MC 2,Thousand Oaks,Ventura,CL82,02352.34*H,24,7.31500006,34-12-24.000N,118-53-00.000W,34 12 24.600N,118 52 58.900W,34.20683333,-118.8830278,34.21,-119,http://www.dot.ca.gov/hq/planning/aeronaut/helipads/dataplates/pdfs/Los_Robles_Medical_Center_2_HP.pdf,Los_Robles_Medical_Center_2_HP.pdf
114,1,-119.2301528,38.25234722,113,119,Mono Medical Center HP,Mono MC,Bridgeport,Mono,CN10,01346.1*H,0,0,38-15-08.000N,119-13-50.000W,38 15 08.450N,119 13 48.550W,38.25234722,-119.2301528,38.25,-119,http://www.dot.ca.gov/hq/planning/aeronaut/helipads/dataplates/pdfs/Mono_Medical_Center_HP.pdf,Mono_Medical_Center_HP.pdf
115,1,-117.1677778,34.26548611,114,120,Mountains Community Hospital HP,Mountains Community,Lake Arrowhead,San Bernardino,47CA,01739.09*H,0,0,34-15-55.000N,117-10-04.000W,34 15 55.750N,117 10 04.000W,34.26548611,-117.1677778,34.27,-117,http://www.dot.ca.gov/hq/planning/aeronaut/helipads/dataplates/pdfs/Mountains_Community_Hospital_HP.pdf,Mountains_Community_Hospital_HP.pdf
116,1,-121.6345417,36.69748611,115,121,Natividad Medical Center HP,Natividad MC,Salinas,Monterey,5CL4,02137.15*H,0,0,36-41-52.000N,121-39-02.000W,36 41 50.950N,121 38 04.350W,36.69748611,-121.6345417,36.7,-122,http://www.dot.ca.gov/hq/planning/aeronaut/helipads/dataplates/pdfs/Natividad_Medical_Center_HP.pdf,Natividad_Medical_Center_HP.pdf
117,1,-122.04825,38.26129167,116,122,North Bay Medical Center HP,North Ba MC,Fairfield,Solano, , ,39,11.88700008,38-15-41.000N,122-02-50.000W,38 15 40.650N,122 02 53.700W,38.26129167,-122.04825,38.26,-122,http://www.dot.ca.gov/hq/planning/aeronaut/helipads/dataplates/pdfs/North_Bay_Medical_Center_HP.pdf,North_Bay_Medical_Center_HP.pdf
118,1,-118.5325,34.22,117,123,Northridge Hospital Medical Center HP,Northridge MC,Northridge,Los Angeles,CA86,01818.41*H,166,50.59700012,34-13-13.000N,118-31-56.000W,34 13 12.000N,118 31 57.000W,34.22,-118.5325,34.22,-119,http://www.dot.ca.gov/hq/planning/aeronaut/helipads/dataplates/pdfs/Northridge_Hospital_Medical_Center_HP.pdf,Northridge_Hospital_Medical_Center_HP.pdf
119,1,-118.4450278,34.32683333,118,124,Olive View Medical Center HP,Olive View MC,Sylmar,Los Angeles,CA64,02333.01*H,0,0,34-19-36.000N,118-26-39.000W,34 19 36.600N,118 26 42.100W,34.32683333,-118.4450278,34.33,-118,http://www.dot.ca.gov/hq/planning/aeronaut/helipads/dataplates/pdfs/Olive_View_Medical_Center_HP.pdf,Olive_View_Medical_Center_HP.pdf
120,1,-121.5415278,39.50744444,119,125,Oroville Hospital HP,Oroville,Oroville,Butte, , ,0,0,39-30-28.000N,121-32-38.000W,39 30 26.800N,121 32 29.500W,39.50744444,-121.5415278,39.51,-122,http://www.dot.ca.gov/hq/planning/aeronaut/helipads/dataplates/pdfs/Oroville_Hospital_HP.pdf,Oroville_Hospital_HP.pdf
121,1,-118.1450972,34.58225,120,126,Palmdale Medical Center HP,Palmdale MC,Palmdale,Los Angeles,50CN,02005.11*H,0,0,34-34-57.000N,118-08-44.000W,34 34 56.100N,118 08 42.350W,34.58225,-118.1450972,34.58,-118,http://www.dot.ca.gov/hq/planning/aeronaut/helipads/dataplates/pdfs/Palmdale_Medical_Center_HP.pdf,Palmdale_Medical_Center_HP.pdf
122,1,-117.075625,33.12451389,121,127,Palomar Medical Center HP Downtown,Palomar Health Downtown Campus,Escondido,San Diego, , ,28,8.5340004,33-07-28.000N,117-04-28.000W,33 07 28.250N,117 04 32.250W,33.12451389,-117.075625,33.12,-117,http://www.dot.ca.gov/hq/planning/aeronaut/helipads/dataplates/pdfs/Palomar_Medical_Center_HP.pdf,Palomar_Medical_Center_HP.pdf
123,1,-117.1219444,33.12230556,122,128,Palomar Medical Center HP,Palomar MC,Escondido,San Diego, , ,191,58.21699905,33-07-20.000N,117-07-19.000W,33 07 20.300N,117 07 19.000W,33.12230556,-117.1219444,33.12,-117,http://www.dot.ca.gov/hq/planning/aeronaut/helipads/dataplates/pdfs/Palomar_Medical_Center_West_HP.pdf,Palomar_Medical_Center_West_HP.pdf
124,1,-122.6315278,38.25552778,123,129,Petaluma Valley Hospital HP,Petaluma Valley,Petaluma,Sonoma, , ,0,0,38-15-19.000N,122-37-46.000W,38 15 19.900N,122 37 53.500W,38.25552778,-122.6315278,38.26,-123,http://www.dot.ca.gov/hq/planning/aeronaut/helipads/dataplates/pdfs/Petaluma_Valley_Hospital_HP.pdf,Petaluma_Valley_Hospital_HP.pdf
125,1,-119.7241583,34.42983333,124,130,Santa Barbara Cottage Hospital HP,Santa Barbara Cottage,Santa Barbara,Santa Barbara, , ,63,19.20199966,34-25-48.000N,119-43-27.000W,34 25 47.400N,119 43 26.970W,34.42983333,-119.7241583,34.43,-120,http://www.dot.ca.gov/hq/planning/aeronaut/helipads/dataplates/pdfs/SantaBarbaraCottageHospitalHP.pdf,SantaBarbaraCottageHospitalHP.pdf
126,1,-121.9342361,37.31326389,125,131,Santa Clara Valley Medical Center HP,Santa Clara Valley MC,San Jose,Santa Clara,CA33,02202.3*H,65,19.81200027,37-18-51.000N,121-56-03.000W,37 18 47.750N,121 56 03.250W,37.31326389,-121.9342361,37.31,-122,http://www.dot.ca.gov/hq/planning/aeronaut/helipads/dataplates/pdfs/Santa_Clara_Valley_Medical_Center_HP.pdf,Santa_Clara_Valley_Medical_Center_HP.pdf
127,1,-122.7013333,38.44351389,126,132,Santa Rosa Memorial Hospital HP,Santa Rosa Memorial,Santa Rosa,Sonoma,CL51,02258.01*H,28,8.5340004,38-26-38.000N,122-42-01.000W,38 26 36.650N,122 42 04.800W,38.44351389,-122.7013333,38.44,-123,http://www.dot.ca.gov/hq/planning/aeronaut/helipads/dataplates/pdfs/Santa_Rosa_Memorial_Hospital_HP.pdf,Santa_Rosa_Memorial_Hospital_HP.pdf
128,1,-118.3820694,34.07629167,127,133,Saperstein Critical Care Tower HP,Saperstein Critical Care Tower,Los Angeles,Los Angeles,CA46,01817.49*H,169,51.51100159,34-04-35.000N,118-22-55.000W,34 04 34.65N,118 22 55.450W,34.07629167,-118.3820694,34.08,-118,http://www.dot.ca.gov/hq/planning/aeronaut/helipads/dataplates/pdfs/Saperstein_Critical_Care_Tower_HP.pdf,Saperstein_Critical_Care_Tower_HP.pdf
129,1,-117.2254861,32.88625,128,134,Scripps Memorial Hospital HP,Scripps Memorial,La Jolla,San Diego,CA24,01737.*H,0,0,32-53-11.000N,117-13-29.000W,32 53 10.500N,117 13 31.750W,32.88625,-117.2254861,32.89,-117,http://www.dot.ca.gov/hq/planning/aeronaut/helipads/dataplates/pdfs/Scripps_Memorial_Hospital_HP.pdf,Scripps_Memorial_Hospital_HP.pdf
130,1,-117.1602778,32.75111111,129,135,Scripps Mercy Hospital HP,Scripps Mercy,San Diego,San Diego,CL97,02166.17*H,35,10.66800022,32-45-07.000N,117-09-62.000W,32 45 04.N,117 09 37W,32.75111111,-117.1602778,32.75,-117,http://www.dot.ca.gov/hq/planning/aeronaut/helipads/dataplates/pdfs/Scripps_Mercy_Hospital_HP.pdf,Scripps_Mercy_Hospital_HP.pdf
131,1,-117.1533333,32.79944444,130,136,Sharp Memorial Hospital HP,Sharp Memorial,San Diego,San Diego, , ,57,17.37400055,32-47-58.000N,117-09-12.000W,32 47 58.000N,117 09 12.000W,32.79944444,-117.1533333,32.8,-117,http://www.dot.ca.gov/hq/planning/aeronaut/helipads/dataplates/pdfs/Sharp_Memorial_Hospital_HP.pdf,Sharp_Memorial_Hospital_HP.pdf
132,0,-122.8277778,40.58627778,131,137,Shasta Regional Medical Center N HP,Shasta Regional MC N,Redding,Shasta, , ,45,13.7159996,40-35-17.000N,122-23-02.000W,40 35 10.600N,122 23 1600W,40.58627778,-122.8277778,40.59,-122,http://www.dot.ca.gov/hq/planning/aeronaut/helipads/dataplates/pdfs/Shasta_Regional_Medical_Center_N_and_S_HP.pdf,Shasta_Regional_Medical_Center_N_and_S_HP.pdf
133,1,-122.3880556,40.585,132,138,Shasta Regional Medical Center S HP,Shasta Regional MC S,Redding,Shasta,11CN,02088.3*H,72,21.94599915,40-35-10N,122-23-28W,40 35 06N,122 23 17W,40.585,-122.3880556,40.59,-122,http://www.dot.ca.gov/hq/planning/aeronaut/helipads/dataplates/pdfs/Shasta_Regional_Medical_Center_N_and_S_HP.pdf,Shasta_Regional_Medical_Center_N_and_S_HP.pdf
134,1,-118.4494861,34.15988889,133,139,Sherman Oaks Hospital & Health Center HP,Sherman Oaks Hospital & Health Center,Sherman Oaks,Los Angeles,CL80,02294.5*H,26,7.92500019,34-09-36.000N,118-26-55.000W,34 09 35.600N,118 26 58.150W,34.15988889,-118.4494861,34.16,-118,http://www.dot.ca.gov/hq/planning/aeronaut/helipads/dataplates/pdfs/Sherman_Oaks_Hospital_Health_Center_HP.pdf,Sherman_Oaks_Hospital_Health_Center_HP.pdf
135,1,-124.0909167,40.89527778,134,140,Mad River Community Hospital HP,Mad River Community,Arcata/Eureka,Humboldt, , ,0,0,40-53-43.300N,124-05-27.600W,40 53 43.000N,124 05 27.300W,40.89527778,-124.0909167,40.9,-124,http://www.dot.ca.gov/hq/planning/aeronaut/helipads/dataplates/pdfs/Mad_River_Community_Hospital_HP.pdf,Mad_River_Community_Hospital_HP.pdf
136,1,-118.4470972,34.06675,135,141,UCLA Medical Center Westwood (Ronald Reagan) East,UCLA  MC Westwood E,Los Angeles,Los Angeles, , ,150,45.72000122,34-04-00.000N,118-26-46.000W,34 04 00.300N,118 26 49.550W,34.06675,-118.4470972,34.07,-118,http://www.dot.ca.gov/hq/planning/aeronaut/helipads/dataplates/pdfs/UCLA_Medical_Center_Westwood_Ronald_Reagan_HP.pdf,UCLA_Medical_Center_Westwood_Ronald_Reagan_HP.pdf
137,1,-118.446625,34.06675,136,142,UCLA Medical Center Westwood (Ronald Reagan) West,UCLA  MC Westwood W,Los Angeles,Los Angeles, , ,150,45.72000122,34-04-00.000N,118-26-48.000W,34 04 00.300N,118 26 47.850W,34.06675,-118.446625,34.07,-118,http://www.dot.ca.gov/hq/planning/aeronaut/helipads/dataplates/pdfs/UCLA_Medical_Center_Westwood_Ronald_Reagan_HP.pdf,UCLA_Medical_Center_Westwood_Ronald_Reagan_HP.pdf
138,1,-123.2034167,39.152625,137,143,Adventist Health Ukiah Valley HP,Adventist Health Ukiah Valley,Ukiah,Mendocino, , ,26,7.9248,39-09.18N,123-12.13W,39 09 11N,123 12 08W,39.153056,-123.202222,39.15,-123,https://heliplates.dot.ca.gov/pdfs/Adventist_Health_Ukiah_Valley_HP.pdf,Adventist_Health_Ukiah_Valley_HP.pdf
139,1,-118.2015278,34.06166667,138,144,Keck Hospital of USC HP,Keck Hospital of USC,Los Angeles,Los Angeles,CL00,C1817.97*H,106,32.30899811,34-03-41.000N,118-12-03.000W,34 03 42.000N,118 12 05.500W,34.06166667,-118.2015278,34.06,-118,http://www.dot.ca.gov/hq/planning/aeronaut/helipads/dataplates/pdfs/USC_University_Hospital_HP.pdf,USC_University_Hospital_HP.pdf
140,1,-121.9511667,38.35533333,139,145,Vaca Valley Hospital HP,Vaca Valley,Vacaville,Solano,CL96,02389.11*H,0,0,38-21-21.000N,121-57-01.000W,38 21 19.200N,121 57 04.200W,38.35533333,-121.9511667,38.36,-122,http://www.dot.ca.gov/hq/planning/aeronaut/helipads/dataplates/pdfs/Vaca_Valley_Hospital_HP.pdf,Vaca_Valley_Hospital_HP.pdf
141,1,-121.880875,37.69438889,140,146,Stanford Health Care - ValleyCare HP,Stanford Health Care - ValleyCare,Pleasanton,Alameda, , ,0,0,37-41-39.000N,121-52-46.000W,37 41 39.800N,121 52 51.150W,37.69438889,-121.880875,37.69,-122,http://www.dot.ca.gov/hq/planning/aeronaut/helipads/dataplates/pdfs/ValleyCare_Medical_Center_HP.pdf,ValleyCare_Medical_Center_HP.pdf
142,1,-119.2526667,34.27652778,141,147,Ventura County Medical Center HP,Ventura County MC,Ventura,Ventura, , ,55,16.76399994,34-16-40.000N,119-15-05.000W,34 16 35.500N,119 15 09.600W,34.27652778,-119.2526667,34.28,-119,http://www.dot.ca.gov/hq/planning/aeronaut/helipads/dataplates/pdfs/Ventura_County_Medical_Center_HP.pdf,Ventura_County_Medical_Center_HP.pdf
143,1,-118.2172917,34.20416667,142,148,Verdugo Hills Hospital HP,Verdugo Hills,Glendale,Los Angeles,95CL,01611.12*H,0,0,34-12-15.000N,118-13-00.000W,34 12 15.000N,118 13 02.250W,34.20416667,-118.2172917,34.2,-118,http://www.dot.ca.gov/hq/planning/aeronaut/helipads/dataplates/pdfs/Verdugo_Hills_HP.pdf,Verdugo_Hills_HP.pdf
144,1,-117.2927778,34.52777778,143,149,Victor Valley Community Hospital HP,Victor Valley Community,Victorville,San Bernardino,69CA,02407.02*H,17,5.18200016,34-31-40.000N,117-17-34.000W,34 31 40.000N,117 17 34.000W,34.52777778,-117.2927778,34.53,-117,http://www.dot.ca.gov/hq/planning/aeronaut/helipads/dataplates/pdfs/Victor_Valley_Community_Hospital_HP.pdf,Victor_Valley_Community_Hospital_HP.pdf
145,1,-121.97825,37.55643056,144,150,Washington Hospital HP,Washington,Fremont,Alameda,CL64,01588.24*H,0,0,37-33-23.000N,121-58-38.000W,37 33 23.150N,121 58 41.700W,37.55643056,-121.97825,37.56,-122,http://www.dot.ca.gov/hq/planning/aeronaut/helipads/dataplates/pdfs/Washington_Hospital_HP.pdf,Washington_Hospital_HP.pdf
146,1,-117.83275,33.75493056,145,151,Orange County Global Medical Center HP,Orange County Global Medical Center H,Santa Ana,Orange,1CN1,02228.23*H,0,0,33-45-16.000N,117-49-55.000W,33 45 17.750N,117 49 57.900W,33.75493056,-117.83275,33.75,-118,http://dot.ca.gov/hq/planning/aeronaut/helipads/dataplates/pdfs/Orange_County_Global_Medical_Center_HP.pdf,Orange_County_Global_Medical_Center_HP.pdf
147,1,-117.8654028,33.78145833,146,152,Childrens Hospital of Orange County South Tower HP,Childrens of Orange County South,Orange,Orange,4CA5,01989.14*H,129,39.31900024,33-46-50.700N,117-51-54.600W,33 46 53.250N,117 51 55.450W,33.78145833,-117.8654028,33.78,-118,http://www.dot.ca.gov/hq/planning/aeronaut/helipads/dataplates/pdfs/Childrens_Hospital_of_Orange_County_HP.pdf,Childrens_Hospital_of_Orange_County_HP.pdf
148,1,-121.1430556,38.67055556,147,153,Mercy Hospital of Folsom HP,Mercy Folsom,Folsom,Sacramento, , ,0,0,38-40-14.000N,121-08-35.000W,38 40 14.000N,121 08 35.000W,38.67055556,-121.1430556,38.67,-121,http://www.dot.ca.gov/hq/planning/aeronaut/helipads/dataplates/pdfs/Mercy_Hospital_of_Folsom_HP.pdf,Mercy_Hospital_of_Folsom_HP.pdf
149,1,-117.285,33.03694444,148,154,Scripps Memorial Hospital Encinitas HP,Scripps Encintas,Encinitas,San Diego,CA82,15549.33*H,51,15.54500008,33-02-13.500N,117-17-06.300W,33 02 13.000N,117 17 06.000W,33.03694444,-117.285,33.04,-117,http://www.dot.ca.gov/hq/planning/aeronaut/helipads/dataplates/pdfs/Scripps_Memorial_Hospital_Encinitas_HP.pdf,Scripps_Memorial_Hospital_Encinitas_HP.pdf
150,1,-122.3905556,37.76555556,149,155,UCSF Medical Center Mission Bay HP,UCSF MC Mission Bay,San Francisco,San Francisco,18CN,02187.51*H,0,0,37-45.98N,122-23.42W,37 45 56N,122 23 26W,37.76555556,-122.3905556,37.77,-122,http://www.dot.ca.gov/hq/planning/aeronaut/helipads/dataplates/pdfs/UCSF_Medical_Center_Mission_Bay_HP,UCSF_Medical_Center_Mission_Bay_HP
151,1,-121.9404167,38.38875,150,156,Kaiser Permanente Vacaville HP,Kaiser Permanente Vacaville,Vacaville,Solano, , ,100,30.47999954,38-23-19.500N,121-56-25.500W,38 23 19.500N,121 56 25.500W,38.38875,-121.9404167,38.39,-122,http://www.dot.ca.gov/hq/planning/aeronaut/helipads/dataplates/pdfs/Kaiser_Permanente_Vacaville_HP.pdf,Kaiser_Permanente_Vacaville_HP.pdf
152,1,-119.2938597,36.32809194,151,157,Kaweah Delta District HP,Kaweah Delta,Visalia,Tulare, , ,19,5.78999996,36-19-41.000N,119-17-38.000W,36 19 41.131N,119 17 37.895W,36.32809194,-119.2938597,36.33,-119,http://www.dot.ca.gov/hq/planning/aeronaut/helipads/dataplates/pdfs/Kaweah_Delta_District_HP.pdf,Kaweah_Delta_District_HP.pdf
153,1,-120.6661111,35.29377694,152,158,Sierra Vista Regional Medical Center HP,Sierra Vista Regional MC,San Luis Obispo,San Luis Obispo, , ,43,13.10599995,35-17-38.000N,120-39-58.000W,35 17 37.597N,120 39 58.000W,35.29377694,-120.6661111,35.29,-121,http://www.dot.ca.gov/hq/planning/aeronaut/helipads/dataplates/pdfs/Sierra_Vista_Regional_Medical_Center_HP.pdf,Sierra_Vista_Regional_Medical_Center_HP.pdf
154,1,-118.6290278,34.20321389,154,160,West Hills Hospital Heliport,West Hills,West Hills,Los Angeles, , ,43,13.10999966,34-12-11.570N,118-37-44.500W,34 12 11.570N,118 37 44.500W,34.20321389,-118.6290278,34.2,-119,http://www.dot.ca.gov/hq/planning/aeronaut/helipads/dataplates/pdfs/West_Hills_Hp.pdf,West_Hills_Hp.pdf
155,1,-121.5927778,39.13833333,155,1283,Adventist Health and Rideout Heliport,Adventist Health and Rideout,Marysville,Yuba,None,None,112,34.14,39-08.30N,121-35.57W,39 08 18N,121 35 34W,39.13833333,-121.5927778,39.14,-122,http://dot.ca.gov/hq/planning/aeronaut/helipads/dataplates/pdfs/Rideout_Memorial_Hospital.pdf,Rideout_Memorial_Hospital.pdf
156,1,-123.3391667,39.38916667,156,1284,Frank R. Howard Memorial Hospital Heliport,Frank R. Howard Mem HP,Willits,Mendocino,CA02,02455.06*H,0,0,39 23.35N,123 20.35W,39 23 21N,123 20 21W,39.38916667,-123.3391667,39.39,-123,http://dot.ca.gov/hq/planning/aeronaut/helipads/dataplates/pdfs/Frank_R_Howard_Memorial_Hospital_HP.pdf,Frank_R_Howard_Memorial_Hospital_HP.pdf
157,1,-117.845,33.85194444,157,1285,Kaiser Permanente Anaheim Medical Center HP,Kaiser Permanente Anaheim MC,Anaheim,Orange,3CN4,01241.17*H,105,32,33-51-07.000N,117-50-42.000W,33 51 07.000N,117 50 42.000W,33.85194444,-117.845,33.85,-118,http://dot.ca.gov/hq/planning/aeronaut/helipads/dataplates/pdfs/Kaiser_Permanente_Anaheim_Medical_Center_HP.pdf,Kaiser_Permanente_Anaheim_Medical_Center_HP.pdf
158,1,-117.2966667,34.47166667,158,1601,Desert Valley Hospital HP,Desert Valley,Victorville,San Bernardino,None,None,8,3046,34 28 18.3N,117 17 48.5W,34 28 18N,117 17 48W,34.47166667,-117.2966667,34.47,-117,http://dot.ca.gov/hq/planning/aeronaut/helipads/dataplates/pdfs/Desert_Valley_hospital.pdf,Desert_Valley_hospital.pdf
159,1,-122.3838889,37.59194444,159,1921,Mills Peninsula Medical Center HP,Mills Peninsula MC HP,Burlingame,San Mateo,None,None,11,3.4,37 35.52N,122 23.03W,37 35 31N,122 23 02W,37.59194444,-122.3838889,37.59,122,http://dot.ca.gov/hq/planning/aeronaut/helipads/dataplates/pdfs/Mills_Peninsula_Medical_Center_HP.pdf,Mills_Peninsula_Medical_Center_HP.pdf
160,1,-117.1080556,33.48027778,160,1937,Temecula Valley Hospital HP,Temecula Valley Hospital HP,Temecula,Riverside,98CL, 02345.20*H,5,1.524,33 28.82N,117 06.48W,33 28 49N,117 06 29W,33.48027778,-117.1080556,33.48,-117,https://heliplates.dot.ca.gov/pdfs/Temecula_Valley_Hospital_HP.pdf,Temecula_Valley_Hospital_HP.pdf
161,1,-121.4696677,38.57050308,161,1938,Sutter Medical Center Sacramento HP,Sutter MC Sacramento,Sacramento,Sacramento,None,None,162,49.3776, 38-34.23N, 121-28.18W,38 34 14.000N,121 28 11.000W,38.570556,-121.469722,38.57,-121,http://dot.ca.gov/hq/planning/aeronaut/helipads/dataplates/pdfs/Sutter_Medical_Center_Sacramento_HP.pdf,Sutter_Medical_Center_Sacramento_HP.pdf
162,1,-117.7491667,34.07666667,162,1939,Pomona Valley Hospital Medical Center HP,Pomona Valley,Pomona,Los Angeles,None,None,54,16.4592, , ,34 04 36N,117 44 57W,34.07666667,-117.7491667,34.08,-118,http://www.dot.ca.gov/hq/planning/aeronaut/helipads/dataplates/pdfs/Pomona_Valley_Hospital_Medical_Center_HP.pdf,Pomona_Valley_Hospital_Medical_Center_HP.pdf
163,1,-117.3216667,34.13083333,163,1940,San Bernardino Community Hospital HP,San Bernardino Community,San Bernardino,San Bernardino,None,None,0,0, , ,34 07 51N,117 19 18W,34.13083333,-117.3216667,33.13,-117,http://www.dot.ca.gov/hq/planning/aeronaut/helipads/dataplates/pdfs/San_Bernardino_Community_Hospital_HP.pdf,San_Bernardino_Community_Hospital_HP.pdf
164,1,-122.6194444,38.93472222,164,1941,Saint Helena Hospital Clear Lake HP,Saint Helena Clear Lake,Clearlake,Lake,CL53,01406.01*,15,4.572, , ,38 56 05N,122 37 10W,38.93472222,-122.6194444,38.93,-123,http://www.dot.ca.gov/hq/planning/aeronaut/helipads/dataplates/pdfs/Saint_Helena_Hospital_Clear_Lake_HP.pdf,Saint_Helena_Hospital_Clear_Lake_HP.pdf
165,1,-117.2263889,32.87777778,165,2241,UCSD Jacobs Medical Center HP,UCSD Jacobs MC,La Jolla,San Diego,93CN,01737.1*H,194,59.1313, , ,32 52 40N,117 13 35W,32.87777778,-117.2263889,32.88,-117,http://www.dot.ca.gov/hq/planning/aeronaut/helipads/dataplates/pdfs/UCSD_Jacobs_Medical_Center_HP.pdf,UCSD_Jacobs_Medical_Center_HP.pdf
166,1,-120.3708333,37.97777778,166,2881,Sonora Regional Medical Center HP,Sonora Regional,Sonora,Tuolumne, , ,0,0,37-58.67N,120-22.25W,37 58 40N,120 22 15W,37.97777778,-120.3708333,37.98,-120,http://www.dot.ca.gov/hq/planning/aeronaut/helipads/dataplates/pdfs/Sonora_Regional_Medical_Center_HP.pdf,Sonora_Regional_Medical_Center_HP.pdf
167,1,-118.4500833,35.14866667,167,2882,Adventist Health Medical Center Tehachapi Heliport,Adventist Health MC Tehachapi,Tehachapi,Kern, , ,0,0,35-08.92N,118-27.00W,35 08 55.2N,118 27 00.3W,35.14866667,-118.4500833,35.15,-118,http://www.dot.ca.gov/hq/planning/aeronaut/helipads/dataplates/pdfs/Adventist_Health_Medical_Center_Tehachapi_HP.pdf,Adventist_Health_Medical_Center_Tehachapi_HP.pdf
168,1,-121.314375,38.669139,168,0,Mercy San Juan Medical Center HP,Mercy San Juan MC,Carmichael,Sacramento,4CL5,01377.4*H,47,14.32600021,38-40-09.000N,121-18-53.000W,38 40.15N,121 18 88,38.669139,-121.314722,38.67,-121,http://www.dot.ca.gov/hq/planning/aeronaut/helipads/dataplates/pdfs/Mercy_San_Juan_Medical_Center_HP.pdf,Mercy_San_Juan_Medical_Center_HP.pdf
169,1,-117.2645398,34.54322719,0,0,Saint Marys Medical Center HP,Saint Marys MC Primary,Apple Valley,San Bernardino,79CA,01248.12*H,0,0,34-32-35.6N,117-15-52.3W,34 32 35.6N,117 15 52.3W,34.543222,-117.264528,34.54,-117,https://heliplates.dot.ca.gov/pdfs/Saint_Marys_Medical_Center_Primary_HP.pdf,Saint_Marys_Medical_Center_Primary_HP.pdf
170,1,-122.1747354,37.43556049,0,0,Stanford Health Care - West HP,Stanford Health Care - West HP,Palo Alto,Santa Clara, , ,153,46.6344,37-26-08N,122-10-29W,37 26.08N,122 10.65W,37.435556,-122.174722,37.44,-122,https://heliplates.dot.ca.gov/pdfs/Stanford_Hospital_HP.pdf,Stanford_Hospital_HP.pdf
